[{"OBJECT_NAME":"STARLINK-35078","OBJECT_ID":"2025-200D","EPOCH":"2026-03-09T17:10:39.633600","MEAN_MOTION":15.0564911,"ECCENTRICITY":6.756e-5,"INCLINATION":97.6023,"RA_OF_ASC_NODE":139.8053,"ARG_OF_PERICENTER":102.1447,"MEAN_ANOMALY":257.9856,"EPHEMERIS_TYPE":0,"CLASSIFICATION_TYPE":"U","NORAD_CAT_ID":65523,"ELEMENT_SET_NO":999,"REV_AT_EPOCH":2913,"BSTAR":0.00024269803,"MEAN_MOTION_DOT":3.443e-5,"MEAN_MOTION_DDOT":0},{"OBJECT_NAME":"FENGYUN 1C DEB","OBJECT_ID":"1999-025FK","EPOCH":"2026-03-09T17:46:38.104320","MEAN_MOTION":14.84141288,"ECCENTRICITY":0.01116123,"INCLINATION":98.9208,"RA_OF_ASC_NODE":354.5977,"ARG_OF_PERICENTER":225.7574,"MEAN_ANOMALY":200.963,"EPHEMERIS_TYPE":0,"CLASSIFICATION_TYPE":"U","NORAD_CAT_ID":29865,"ELEMENT_SET_NO":999,"REV_AT_EPOCH":2048,"BSTAR":0.00075888297,"MEAN_MOTION_DOT":7.012e-5,"MEAN_MOTION_DDOT":0}]
